TJS-25                  
1 69474U 26129A   26192.46765295 -.00000359  00000+0  00000+0 0  9990
2 69474   5.9577 330.3188 0002690 284.8931 322.7014  1.00273479   308
STARLINK-37816          
1 69478U 26131A   26192.50002315 -.03041329  00000+0 -56431-1 0  9996
2 69478  97.2846 214.0770 0002893  89.1852  21.0960 15.53041892  5919
STARLINK-37878          
1 69479U 26131B   26192.50002315 -.02656686  00000+0 -37082-1 0  9995
2 69479  97.2843 214.1064 0001970 110.0151  85.3587 15.60755724  4770
STARLINK-37817          
1 69480U 26131C   26192.50002315 -.02404812  00000+0 -33776-1 0  9995
2 69480  97.2840 214.1273 0002372 119.8705 120.8918 15.60190503  5918
STARLINK-37727          
1 69481U 26131D   26192.50002315 -.02807710  00000+0 -52776-1 0  9991
2 69481  97.2843 214.0792 0002126  91.1056  24.4995 15.52352920  5913
STARLINK-37814          
1 69482U 26131E   26192.50002315 -.02446269  00000+0 -35149-1 0  9995
2 69482  97.2838 214.1260 0002186 111.0052 125.0891 15.59664922  5911
STARLINK-37869          
1 69483U 26131F   26192.50002315 -.02616154  00000+0 -39636-1 0  9993
2 69483  97.2840 214.1075 0001680  98.9076  98.1307 15.58556050  5919
STARLINK-37873          
1 69484U 26131G   26192.50002315 -.02348832  00000+0 -37017-1 0  9990
2 69484  97.2848 214.1195 0001814  94.1788 118.2854 15.57076728  5917
STARLINK-37892          
1 69485U 26131H   26192.50002315 -.02408220  00000+0 -36408-1 0  9992
2 69485  97.2843 214.1318 0002059 121.6609 126.0294 15.58270672  5910
STARLINK-37893          
1 69486U 26131J   26192.50002315 -.01225024  00000+0 -16507-1 0  9999
2 69486  97.2923 214.1284 0001774 112.4460 129.7336 15.60658028  5991
STARLINK-37842          
1 69487U 26131K   26192.50002315 -.02580091  00000+0 -38506-1 0  9992
2 69487  97.2838 214.1111 0001632 103.9038 100.2039 15.58892540  5917
STARLINK-37449          
1 69488U 26131L   26192.50002315 -.02461493  00000+0 -37128-1 0  9996
2 69488  97.2844 214.1378 0001791 123.0818 138.9015 15.58420151  6003
STARLINK-37831          
1 69489U 26131M   26192.50002315 -.01714604  00000+0 -30312-1 0  9999
2 69489  97.2841 214.0917 0001751  95.8293  49.0395 15.53440949  4540
STARLINK-37879          
1 69490U 26131N   26192.50002315 -.02322187  00000+0 -37951-1 0  9999
2 69490  97.2847 214.1209 0002018  87.9795 127.7260 15.56059833  5917
STARLINK-37856          
1 69491U 26131P   26192.50002315 -.01786063  00000+0 -28398-1 0  9991
2 69491  97.2845 214.1112 0001729 101.0197  91.8434 15.56451939  5974
STARLINK-37568          
1 69492U 26131Q   26192.50002315 -.02179761  00000+0 -39178-1 0  9992
2 69492  97.2845 214.1091 0001663  90.3395  99.2172 15.53248809  6001
STARLINK-37855          
1 69493U 26131R   26192.50002315 -.02481126  00000+0 -29208-1 0  9997
2 69493  97.2842 214.1630 0001435 123.9328 197.9436 15.64821140  5975
STARLINK-37854          
1 69494U 26131S   26192.50002315 -.02563411  00000+0 -36487-1 0  9993
2 69494  97.2841 214.1327 0001748 103.2261 152.0936 15.60101522  5970
STARLINK-37789          
1 69495U 26131T   26192.50002315 -.02145772  00000+0 -34022-1 0  9993
2 69495  97.2847 214.1305 0001951  89.6823 149.4700 15.56593290  5993
STARLINK-37839          
1 69496U 26131U   26192.50002315 -.01972133  00000+0 -31416-1 0  9996
2 69496  97.2839 214.1252 0001807  97.5426 128.4969 15.56744459  5970
STARLINK-37798          
1 69497U 26131V   26192.50002315 -.02326935  00000+0 -37489-1 0  9997
2 69497  97.2840 214.1338 0001725  98.1672 148.1587 15.56454204  5978
STARLINK-37853          
1 69498U 26131W   26192.50002315 -.00027528  00000+0 -18422-3 0  9990
2 69498  97.2850 214.2067 0001041 103.1055 321.3205 15.75199311  5971
STARLINK-37849          
1 69499U 26131X   26192.50002315 -.04796111  00000+0 -90854-1 0  9993
2 69499  97.2848 214.1117 0002567  94.8634 108.2480 15.53139964  5990
STARLINK-37835          
1 69500U 26131Y   26192.50002315 -.02027149  00000+0 -36678-1 0  9996
2 69500  97.2844 214.1200 0001577  82.6654 125.2664 15.52820260  4884
STARLINK-37843          
1 69501U 26131Z   26192.50002315 -.03773974  00000+0 -72250-1 0  9998
2 69501  97.2849 214.1095 0002582  80.9846 107.0678 15.52439613  5975
STARS-X                 
1 69502U 26132A   26191.98477280  .00001164  00000+0  10050-3 0  9990
2 69502  97.6884 255.3441 0014157 179.8035 180.3196 14.99101760  4348
PETREL                  
1 69503U 26132B   26192.04986685  .00000944  00000+0  82269-4 0  9990
2 69503  97.6913 255.4233 0014050 181.4433 178.6752 14.99179998  4352
BRO-22                  
1 69504U 26132C   26192.17128336  .00000651  00000+0  57304-4 0  9993
2 69504  97.6831 255.5441 0016121 195.4200 164.6534 14.99798641  4379
HORN-L                  
1 69505U 26132D   26191.59874567  .00002811  00000+0  16993-3 0  9991
2 69505  97.6828 255.1999 0028853 224.9163 134.9732 15.11180435  4305
VERTECS                 
1 69506U 26132E   26192.41569133  .00001079  00000+0  89135-4 0  9998
2 69506  97.6827 255.8474 0015369 219.4565 140.5541 15.00983348  4407
