OBJECT_NAME,OBJECT_ID,EPOCH,MEAN_MOTION,ECCENTRICITY,INCLINATION,RA_OF_ASC_NODE,ARG_OF_PERICENTER,MEAN_ANOMALY,EPHEMERIS_TYPE,CLASSIFICATION_TYPE,NORAD_CAT_ID,ELEMENT_SET_NO,REV_AT_EPOCH,BSTAR,MEAN_MOTION_DOT,MEAN_MOTION_DDOT
TJS-25,2026-129A,2026-07-11T11:13:25.214880,1.00273479,.000269,5.9577,330.3188,284.8931,322.7014,0,U,69474,999,30,0,-.359E-5,0
STARLINK-37816,2026-131A,2026-07-11T12:00:02.000160,15.53041892,.0002893,97.2846,214.0770,89.1852,21.0960,0,U,69478,999,591,-.56431E-1,-.3041329E-1,0
STARLINK-37878,2026-131B,2026-07-11T12:00:02.000160,15.60755724,.000197,97.2843,214.1064,110.0151,85.3587,0,U,69479,999,477,-.37082E-1,-.2656686E-1,0
STARLINK-37817,2026-131C,2026-07-11T12:00:02.000160,15.60190503,.0002372,97.2840,214.1273,119.8705,120.8918,0,U,69480,999,591,-.33776E-1,-.2404812E-1,0
STARLINK-37727,2026-131D,2026-07-11T12:00:02.000160,15.52352920,.0002126,97.2843,214.0792,91.1056,24.4995,0,U,69481,999,591,-.52776E-1,-.280771E-1,0
STARLINK-37814,2026-131E,2026-07-11T12:00:02.000160,15.59664922,.0002186,97.2838,214.1260,111.0052,125.0891,0,U,69482,999,591,-.35149E-1,-.2446269E-1,0
STARLINK-37869,2026-131F,2026-07-11T12:00:02.000160,15.58556050,.000168,97.2840,214.1075,98.9076,98.1307,0,U,69483,999,591,-.39636E-1,-.2616154E-1,0
STARLINK-37873,2026-131G,2026-07-11T12:00:02.000160,15.57076728,.0001814,97.2848,214.1195,94.1788,118.2854,0,U,69484,999,591,-.37017E-1,-.2348832E-1,0
STARLINK-37892,2026-131H,2026-07-11T12:00:02.000160,15.58270672,.0002059,97.2843,214.1318,121.6609,126.0294,0,U,69485,999,591,-.36408E-1,-.240822E-1,0
STARLINK-37893,2026-131J,2026-07-11T12:00:02.000160,15.60658028,.0001774,97.2923,214.1284,112.4460,129.7336,0,U,69486,999,599,-.16507E-1,-.1225024E-1,0
STARLINK-37842,2026-131K,2026-07-11T12:00:02.000160,15.58892540,.0001632,97.2838,214.1111,103.9038,100.2039,0,U,69487,999,591,-.38506E-1,-.2580091E-1,0
STARLINK-37449,2026-131L,2026-07-11T12:00:02.000160,15.58420151,.0001791,97.2844,214.1378,123.0818,138.9015,0,U,69488,999,600,-.37128E-1,-.2461493E-1,0
STARLINK-37831,2026-131M,2026-07-11T12:00:02.000160,15.53440949,.0001751,97.2841,214.0917,95.8293,49.0395,0,U,69489,999,454,-.30312E-1,-.1714604E-1,0
STARLINK-37879,2026-131N,2026-07-11T12:00:02.000160,15.56059833,.0002018,97.2847,214.1209,87.9795,127.7260,0,U,69490,999,591,-.37951E-1,-.2322187E-1,0
STARLINK-37856,2026-131P,2026-07-11T12:00:02.000160,15.56451939,.0001729,97.2845,214.1112,101.0197,91.8434,0,U,69491,999,597,-.28398E-1,-.1786063E-1,0
STARLINK-37568,2026-131Q,2026-07-11T12:00:02.000160,15.53248809,.0001663,97.2845,214.1091,90.3395,99.2172,0,U,69492,999,600,-.39178E-1,-.2179761E-1,0
STARLINK-37855,2026-131R,2026-07-11T12:00:02.000160,15.64821140,.0001435,97.2842,214.1630,123.9328,197.9436,0,U,69493,999,597,-.29208E-1,-.2481126E-1,0
STARLINK-37854,2026-131S,2026-07-11T12:00:02.000160,15.60101522,.0001748,97.2841,214.1327,103.2261,152.0936,0,U,69494,999,597,-.36487E-1,-.2563411E-1,0
STARLINK-37789,2026-131T,2026-07-11T12:00:02.000160,15.56593290,.0001951,97.2847,214.1305,89.6823,149.4700,0,U,69495,999,599,-.34022E-1,-.2145772E-1,0
STARLINK-37839,2026-131U,2026-07-11T12:00:02.000160,15.56744459,.0001807,97.2839,214.1252,97.5426,128.4969,0,U,69496,999,597,-.31416E-1,-.1972133E-1,0
STARLINK-37798,2026-131V,2026-07-11T12:00:02.000160,15.56454204,.0001725,97.2840,214.1338,98.1672,148.1587,0,U,69497,999,597,-.37489E-1,-.2326935E-1,0
STARLINK-37853,2026-131W,2026-07-11T12:00:02.000160,15.75199311,.0001041,97.2850,214.2067,103.1055,321.3205,0,U,69498,999,597,-.18422E-3,-.27528E-3,0
STARLINK-37849,2026-131X,2026-07-11T12:00:02.000160,15.53139964,.0002567,97.2848,214.1117,94.8634,108.2480,0,U,69499,999,599,-.90854E-1,-.4796111E-1,0
STARLINK-37835,2026-131Y,2026-07-11T12:00:02.000160,15.52820260,.0001577,97.2844,214.1200,82.6654,125.2664,0,U,69500,999,488,-.36678E-1,-.2027149E-1,0
STARLINK-37843,2026-131Z,2026-07-11T12:00:02.000160,15.52439613,.0002582,97.2849,214.1095,80.9846,107.0678,0,U,69501,999,597,-.7225E-1,-.3773974E-1,0
STARS-X,2026-132A,2026-07-10T23:38:04.369920,14.99101760,.0014157,97.6884,255.3441,179.8035,180.3196,0,U,69502,999,434,.1005E-3,.1164E-4,0
PETREL,2026-132B,2026-07-11T01:11:48.495840,14.99179998,.001405,97.6913,255.4233,181.4433,178.6752,0,U,69503,999,435,.82269E-4,.944E-5,0
BRO-22,2026-132C,2026-07-11T04:06:38.882304,14.99798641,.0016121,97.6831,255.5441,195.4200,164.6534,0,U,69504,999,437,.57304E-4,.651E-5,0
HORN-L,2026-132D,2026-07-10T14:22:11.625888,15.11180435,.0028853,97.6828,255.1999,224.9163,134.9732,0,U,69505,999,430,.16993E-3,.2811E-4,0
VERTECS,2026-132E,2026-07-11T09:58:35.730912,15.00983348,.0015369,97.6827,255.8474,219.4565,140.5541,0,U,69506,999,440,.89135E-4,.1079E-4,0
